NORAD_CAT_ID,OBJECT_NAME,OBJECT_TYPE,EPOCH,MEAN_MOTION,ECCENTRICITY,INCLINATION,RA_OF_ASC_NODE,ARG_OF_PERICENTER,MEAN_ANOMALY,BSTAR,MEAN_MOTION_DOT,MEAN_MOTION_DDOT,TLE_LINE0,TLE_LINE1,TLE_LINE2,SEMIMAJOR_AXIS,PERIOD,APOGEE,PERIGEE,DECAYED
53282.0,STARLINK-4164,PAYLOAD,2022-12-02 04:01:10,15.08838939,0.0002267,53.217,142.0511,57.1511,302.9699,-3.5052e-06,-3.44e-06,0.0,0 STARLINK-4164,1 53282U 22086AS  22336.16748779 -.00000344  00000-0 -35052-5 0  9996,2 53282  53.2170 142.0511 0002267  57.1511 302.9699 15.08838939 20847,6917.884,95.438,541.317,538.18,0.0
53282.0,STARLINK-4164,PAYLOAD,2022-12-02 19:55:02,15.08842735,0.0002109,53.2183,139.0786,57.9972,302.1224,8.1104e-07,-2.75e-06,0.0,0 STARLINK-4164,1 53282U 22086AS  22336.82988465 -.00000275  00000-0  81104-6 0  9999,2 53282  53.2183 139.0786 0002109  57.9972 302.1224 15.08842735 21111,6917.871999999999,95.437,541.196,538.278,0.0
53282.0,STARLINK-4164,PAYLOAD,2022-12-03 03:52:01,15.08795888,0.0002863,53.2197,137.59,62.6612,297.4671,-0.00020989,-3.624e-05,0.0,0 STARLINK-4164,1 53282U 22086AS  22337.16112805 -.00003624  00000-0 -20989-3 0  9997,2 53282  53.2197 137.5900 0002863  62.6612 297.4671 15.08795888 20991,6918.015,95.44,541.861,537.9,0.0
53282.0,STARLINK-4164,PAYLOAD,2022-12-03 11:48:56,15.08811551,0.0001564999999999,53.2171,136.1039,46.5224,313.5898,-9.8857e-05,-1.86e-05,0.0,0 STARLINK-4164,1 53282U 22086AS  22337.49231618 -.00001860  00000-0 -98857-4 0  9997,2 53282  53.2171 136.1039 0001565  46.5224 313.5898 15.08811551 21043,6917.967,95.439,540.915,538.75,0.0
53282.0,STARLINK-4164,PAYLOAD,2022-12-03 16:35:04,15.08826301,0.0002089,53.2175,135.21200000000002,53.724,306.3945,4.3302e-06,-2.19e-06,0.0,0 STARLINK-4164,1 53282U 22086AS  22337.69102665 -.00000219  00000-0  43302-5 0  9990,2 53282  53.2175 135.2120 0002089  53.7240 306.3945 15.08826301 21242,6917.922,95.438,541.232,538.342,0.0
53282.0,STARLINK-4164,PAYLOAD,2022-12-03 19:45:50,15.08833754,0.0001969,53.2174,134.6171,53.2681,306.8491,6.3823e-05,7.28e-06,0.0,0 STARLINK-4164,1 53282U 22086AS  22337.82350073  .00000728  00000-0  63823-4 0  9996,2 53282  53.2174 134.6171 0001969  53.2681 306.8491 15.08833754 21094,6917.899,95.438,541.127,538.4019999999998,0.0
53282.0,STARLINK-4164,PAYLOAD,2022-12-04 10:04:18,15.08843116,0.0002087,53.2182,131.942,55.1913,304.9275,8.8541e-05,1.121e-05,0.0,0 STARLINK-4164,1 53282U 22086AS  22338.41965715  .00001121  00000-0  88541-4 0  9999,2 53282  53.2182 131.9420 0002087  55.1913 304.9275 15.08843116 21183,6917.871,95.437,541.18,538.2919999999998,0.0
53282.0,STARLINK-4164,PAYLOAD,2022-12-04 19:36:36,15.08847096,0.00019,53.2176,130.1562,47.3521,312.7631,0.00011088,1.477e-05,0.0,0 STARLINK-4164,1 53282U 22086AS  22338.81709373  .00001477  00000-0  11088-3 0  9994,2 53282  53.2176 130.1562 0001900  47.3521 312.7631 15.08847096 21415,6917.859,95.437,541.038,538.409,0.0
53282.0,STARLINK-4164,PAYLOAD,2022-12-05 09:55:05,15.0882628,0.0001715,53.2175,127.4803,52.8635,307.2514,0.0006142,9.497e-05,0.0,0 STARLINK-4164,1 53282U 22086AS  22339.41325756  .00009497  00000-0  61420-3 0  9995,2 53282  53.2175 127.4803 0001715  52.8635 307.2514 15.08826280 21334,6917.922,95.438,540.974,538.601,0.0
53282.0,STARLINK-4164,PAYLOAD,2022-12-05 16:16:37,15.08855182,0.0001904,53.2166,126.2906,48.1083,312.0072,0.00036323,5.5e-05,0.0,0 STARLINK-4164,1 53282U 22086AS  22339.67821156  .00005500  00000-0  36323-3 0  9993,2 53282  53.2166 126.2906 0001904  48.1083 312.0072 15.08855182 21370,6917.834,95.437,541.016,538.382,0.0
53282.0,STARLINK-4164,PAYLOAD,2022-12-06 12:56:38,15.08849378,0.0001807,53.2168,122.4246,45.3457,314.7682,6.7234e-05,7.82e-06,0.0,0 STARLINK-4164,1 53282U 22086AS  22340.53932894  .00000782  00000-0  67234-4 0  9995,2 53282  53.2168 122.4246 0001807  45.3457 314.7682 15.08849378 21504,6917.852,95.437,540.967,538.467,0.0
53282.0,STARLINK-4164,PAYLOAD,2022-12-06 19:18:10,15.08848906,0.0001826,53.2164,121.2352,47.31100000000001,312.8036,1.6604000000000002e-05,-2.4e-07,0.0,0 STARLINK-4164,1 53282U 22086AS  22340.80428704 -.00000024  00000-0  16604-4 0  9990,2 53282  53.2164 121.2352 0001826  47.3110 312.8036 15.08848906 21715,6917.853,95.437,540.981,538.455,0.0
53282.0,STARLINK-4164,PAYLOAD,2022-12-07 11:12:01,15.08842476,0.0001859,53.2166,118.2618,48.1564,311.9587,-7.8025e-05,-1.53e-05,0.0,0 STARLINK-4164,1 53282U 22086AS  22341.46668816 -.00001530  00000-0 -78025-4 0  9992,2 53282  53.2166 118.2618 0001859  48.1564 311.9587 15.08842476 21645,6917.873000000001,95.437,541.024,538.452,0.0
53282.0,STARLINK-4164,PAYLOAD,2022-12-07 19:08:57,15.08858563,0.0001807,53.2178,116.7756,49.972,310.1431,-0.00020398,-3.535e-05,0.0,0 STARLINK-4164,1 53282U 22086AS  22341.79788283 -.00003535  00000-0 -20398-3 0  9995,2 53282  53.2178 116.7756 0001807  49.9720 310.1431 15.08858563 21698,6917.824000000001,95.436,540.939,538.439,0.0
53282.0,STARLINK-4164,PAYLOAD,2022-12-08 09:27:24,15.08853606,0.0001801,53.2176,114.0994,47.3459,312.7684,0.00011018,1.466e-05,0.0,0 STARLINK-4164,1 53282U 22086AS  22342.39403604  .00001466  00000-0  11018-3 0  9991,2 53282  53.2176 114.0994 0001801  47.3459 312.7684 15.08853606 21956,6917.839,95.437,540.95,538.4580000000002,0.0
53282.0,STARLINK-4164,PAYLOAD,2022-12-08 15:48:57,15.08846823,0.0001888,53.2177,112.91,45.0978,315.0167,0.00012834,1.755e-05,0.0,0 STARLINK-4164,1 53282U 22086AS  22342.65899993  .00001755  00000-0  12834-3 0  9998,2 53282  53.2177 112.9100 0001888  45.0978 315.0167 15.08846823 21820,6917.86,95.437,541.031,538.418,0.0
53282.0,STARLINK-4164,PAYLOAD,2022-12-09 09:18:11,15.08844739,0.0001674,53.2178,109.6393,54.0703,306.0444,0.00013821,1.913e-05,0.0,0 STARLINK-4164,1 53282U 22086AS  22343.38763862  .00001913  00000-0  13821-3 0  9997,2 53282  53.2178 109.6393 0001674  54.0703 306.0444 15.08844739 22101,6917.866,95.437,540.889,538.573,0.0
53282.0,STARLINK-4164,PAYLOAD,2022-12-09 17:15:08,15.08823728,0.0001747,53.2171,108.1522,36.767,323.3441,-0.00020602,-3.564e-05,0.0,0 STARLINK-4164,1 53282U 22086AS  22343.71885136 -.00003564  00000-0 -20602-3 0  9994,2 53282  53.2171 108.1522 0001747  36.7670 323.3441 15.08823728 21982,6917.93,95.439,541.004,538.587,0.0
53282.0,STARLINK-4164,PAYLOAD,2022-12-10 13:55:09,15.08833453,0.000161,53.2192,104.2877,47.7286,312.3842,1.1730999999999997e-05,-1.01e-06,0.0,0 STARLINK-4164,1 53282U 22086AS  22344.57996949 -.00000101  00000-0  11731-4 0  9991,2 53282  53.2192 104.2877 0001610  47.7286 312.3842 15.08833453 22114,6917.9,95.438,540.879,538.6519999999998,0.0
53282.0,STARLINK-4164,PAYLOAD,2022-12-10 15:30:32,15.0883806,0.0001721999999999,53.2179,103.9897,40.4133,319.6987,7.0496e-05,8.34e-06,0.0,0 STARLINK-4164,1 53282U 22086AS  22344.64620858  .00000834  00000-0  70496-4 0  9997,2 53282  53.2179 103.9897 0001722  40.4133 319.6987 15.08838060 22290,6917.886,95.438,540.943,538.56,0.0
53282.0,STARLINK-4164,PAYLOAD,2022-12-11 13:45:56,15.08843748,0.0001865,53.2173,99.8264,37.1054,323.0067,0.00041496,6.323e-05,0.0,0 STARLINK-4164,1 53282U 22086AS  22345.57357069  .00006323  00000-0  41496-3 0  9997,2 53282  53.2173  99.8264 0001865  37.1054 323.0067 15.08843748 22431,6917.869000000002,95.437,541.024,538.444,0.0
53282.0,STARLINK-4164,PAYLOAD,2022-12-11 16:56:42,15.08850149,0.0001904,53.2169,99.2316,34.9534,325.1583,0.00048145,7.385e-05,0.0,0 STARLINK-4164,1 53282U 22086AS  22345.70604921  .00007385  00000-0  48145-3 0  9991,2 53282  53.2169  99.2316 0001904  34.9534 325.1583 15.08850149 22282,6917.849,95.437,541.0319999999998,538.3969999999998,0.0
53282.0,STARLINK-4164,PAYLOAD,2022-12-11 20:07:29,15.08840955,0.0002247,53.2174,98.6374,36.3099,323.8046,0.00016002,2.259e-05,0.0,0 STARLINK-4164,1 53282U 22086AS  22345.83853274  .00002259  00000-0  16002-3 0  9994,2 53282  53.2174  98.6374 0002247  36.3099 323.8046 15.08840955 22472,6917.877,95.437,541.297,538.188,0.0
53282.0,STARLINK-4164,PAYLOAD,2022-12-12 12:01:20,15.08848992,0.0001612,53.218,95.6642,32.3096,327.7995,0.00037512,5.689e-05,0.0,0 STARLINK-4164,1 53282U 22086AS  22346.50092746  .00005689  00000-0  37512-3 0  9997,2 53282  53.2180  95.6642 0001612  32.3096 327.7995 15.08848992 22578,6917.853,95.437,540.8330000000002,538.6030000000002,0.0
53282.0,STARLINK-4164,PAYLOAD,2022-12-12 18:22:52,15.08845549,0.00018,53.2188,94.4763,27.587,332.5217,0.00033919,5.115e-05,0.0,0 STARLINK-4164,1 53282U 22086AS  22346.76588833  .00005115  00000-0  33919-3 0  9993,2 53282  53.2188  94.4763 0001800  27.5870 332.5217 15.08845549 22613,6917.863,95.437,540.974,538.4830000000002,0.0
53282.0,STARLINK-4164,PAYLOAD,2022-12-13 00:44:25,15.08843295,0.0002058,53.2175,93.2848,36.6649,323.4484,0.00015565,2.19e-05,0.0,0 STARLINK-4164,1 53282U 22086AS  22347.03084877  .00002190  00000-0  15565-3 0  9990,2 53282  53.2175  93.2848 0002058  36.6649 323.4484 15.08843295 22487,6917.87,95.437,541.159,538.312,0.0
53282.0,STARLINK-4164,PAYLOAD,2022-12-13 13:27:30,15.08836219,0.0002112,53.2185,90.9045,43.2813,316.8345,0.00014134,1.962e-05,0.0,0 STARLINK-4164,1 53282U 22086AS  22347.56077143  .00001962  00000-0  14134-3 0  9993,2 53282  53.2185  90.9045 0002112  43.2813 316.8345 15.08836219 22737,6917.892,95.438,541.2180000000002,538.2959999999998,0.0
53282.0,STARLINK-4164,PAYLOAD,2022-12-13 18:13:40,15.08840142,0.0001991,53.2165,90.0128,40.9263,319.1878,7.677899999999999e-05,9.34e-06,0.0,0 STARLINK-4164,1 53282U 22086AS  22347.75949212  .00000934  00000-0  76779-4 0  9991,2 53282  53.2165  90.0128 0001991  40.9263 319.1878 15.08840142 22596,6917.88,95.438,541.122,538.368,0.0
53282.0,STARLINK-4164,PAYLOAD,2022-12-14 13:18:17,15.08843054,0.0002348,53.2168,86.4474,33.4172,326.6968,0.00018305,2.626e-05,0.0,0 STARLINK-4164,1 53282U 22086AS  22348.55437268  .00002626  00000-0  18305-3 0  9993,2 53282  53.2168  86.4474 0002348  33.4172 326.6968 15.08843054 22885,6917.871,95.437,541.36,538.112,0.0
